SL-8 R/B                
1 21088U 91006B   26119.31433188  .00000196  00000+0  18144-3 0  9991
2 21088  82.9397 132.3958 0020997 252.2446 118.3748 13.77505563771045
OKEAN-3                 
1 21397U 91039A   26119.21082461  .00003911  00000+0  27261-3 0  9991
2 21397  82.5134 287.8711 0014573 153.6448 206.5523 15.05078096872632
COSMOS 2151             
1 21422U 91042A   26119.24110900  .00001941  00000+0  15266-3 0  9990
2 21422  82.4990  34.9068 0010704 246.3474 113.6627 15.00305680870770
SL-14 R/B               
1 21423U 91042B   26119.19870913  .00000350  00000+0  41185-4 0  9995
2 21423  82.4940 172.8346 0018542  76.7347 283.5933 14.81872295860550
ERS-1                   
1 21574U 91050A   26119.30060509  .00000335  00000+0  12148-3 0  9995
2 21574  98.7831 138.7985 0032861  53.5993 306.8217 14.39485746823014
ARIANE 40 R/B           
1 21610U 91050F   26119.09258602  .00000284  00000+0  97385-4 0  9995
2 21610  98.1916 169.4122 0001773 285.6727  74.4268 14.42927152826268
INTERCOSMOS 25          
1 21819U 91086A   26119.17127545  .00000877  00000+0  16911-3 0  9998
2 21819  82.5994 279.4733 1485663   8.1301 354.1196 12.12134329502803
SL-8 R/B                
1 21876U 92008B   26119.25991572  .00000048  00000+0  34033-4 0  9990
2 21876  82.9282 230.1604 0034354 355.7296  64.3380 13.75970995716372
SL-8 R/B                
1 21938U 92020B   26119.02643043 -.00000031  00000+0 -47860-4 0  9991
2 21938  82.9269 116.3747 0029594 154.7115 259.8648 13.75548197708055
USA 81                  
1 21949U 92023A   26119.23550777  .00000200  00000+0  66800-4 0  9991
2 21949  85.0039 102.2609 0001434 107.3356 252.7993 14.32383692102022
COSMOS 2219             
1 22219U 92076A   26119.16946696  .00000335  00000+0  20037-3 0  9991
2 22219  71.0601 272.5401 0016611 126.8453 233.4196 14.14098621725512
SL-16 R/B               
1 22220U 92076B   26119.25306601 -.00000014  00000+0  17117-4 0  9990
2 22220  70.9989  81.8614 0012269   7.8304  90.1547 14.16865125728992
COSMOS 2221             
1 22236U 92080A   26119.32705588  .00001927  00000+0  16749-3 0  9999
2 22236  82.5048 230.5657 0014718  28.2353 331.9664 14.96402291788368
SL-16 R/B               
1 22285U 92093B   26119.12714062  .00000245  00000+0  14984-3 0  9993
2 22285  71.0216 258.3804 0006098 243.1060 116.9441 14.15459810720291
COSMOS 2228             
1 22286U 92094A   26119.24247294  .00001837  00000+0  15510-3 0  9990
2 22286  82.5199 188.9149 0019218 129.2651 231.0281 14.97423343783626
SL-16 R/B               
1 22566U 93016B   26119.24332797 -.00000235  00000+0 -96099-4 0  9994
2 22566  71.0037 109.0053 0012470 250.2547 109.7231 14.15308125709322
COSMOS 2242             
1 22626U 93024A   26119.24689237  .00001962  00000+0  16888-3 0  9997
2 22626  82.5208 218.3533 0017445 132.3857 227.8846 14.96757760787955
