[{"OBJECT_NAME":"SL-8 R/B","OBJECT_ID":"1991-006B","EPOCH":"2026-04-29T07:32:38.274432","MEAN_MOTION":13.77505563,"ECCENTRICITY":0.00209972,"INCLINATION":82.9397,"RA_OF_ASC_NODE":132.3958,"ARG_OF_PERICENTER":252.2446,"MEAN_ANOMALY":118.3748,"EPHEMERIS_TYPE":0,"CLASSIFICATION_TYPE":"U","NORAD_CAT_ID":21088,"ELEMENT_SET_NO":999,"REV_AT_EPOCH":77104,"BSTAR":0.00018143615,"MEAN_MOTION_DOT":1.96e-6,"MEAN_MOTION_DDOT":0},{"OBJECT_NAME":"OKEAN-3","OBJECT_ID":"1991-039A","EPOCH":"2026-04-29T05:03:35.246304","MEAN_MOTION":15.05078096,"ECCENTRICITY":0.00145735,"INCLINATION":82.5134,"RA_OF_ASC_NODE":287.8711,"ARG_OF_PERICENTER":153.6448,"MEAN_ANOMALY":206.5523,"EPHEMERIS_TYPE":0,"CLASSIFICATION_TYPE":"U","NORAD_CAT_ID":21397,"ELEMENT_SET_NO":999,"REV_AT_EPOCH":87263,"BSTAR":0.00027260968,"MEAN_MOTION_DOT":3.911e-5,"MEAN_MOTION_DDOT":0},{"OBJECT_NAME":"COSMOS 2151","OBJECT_ID":"1991-042A","EPOCH":"2026-04-29T05:47:11.817600","MEAN_MOTION":15.0030568,"ECCENTRICITY":0.00107049,"INCLINATION":82.499,"RA_OF_ASC_NODE":34.9068,"ARG_OF_PERICENTER":246.3474,"MEAN_ANOMALY":113.6627,"EPHEMERIS_TYPE":0,"CLASSIFICATION_TYPE":"U","NORAD_CAT_ID":21422,"ELEMENT_SET_NO":999,"REV_AT_EPOCH":87077,"BSTAR":0.00015266041,"MEAN_MOTION_DOT":1.941e-5,"MEAN_MOTION_DDOT":0},{"OBJECT_NAME":"SL-14 R/B","OBJECT_ID":"1991-042B","EPOCH":"2026-04-29T04:46:08.468832","MEAN_MOTION":14.81872295,"ECCENTRICITY":0.0018542,"INCLINATION":82.494,"RA_OF_ASC_NODE":172.8346,"ARG_OF_PERICENTER":76.7347,"MEAN_ANOMALY":283.5933,"EPHEMERIS_TYPE":0,"CLASSIFICATION_TYPE":"U","NORAD_CAT_ID":21423,"ELEMENT_SET_NO":999,"REV_AT_EPOCH":86055,"BSTAR":4.1184772e-5,"MEAN_MOTION_DOT":3.5e-6,"MEAN_MOTION_DDOT":0},{"OBJECT_NAME":"ERS-1","OBJECT_ID":"1991-050A","EPOCH":"2026-04-29T07:12:52.279776","MEAN_MOTION":14.39485746,"ECCENTRICITY":0.00328611,"INCLINATION":98.7831,"RA_OF_ASC_NODE":138.7985,"ARG_OF_PERICENTER":53.5993,"MEAN_ANOMALY":306.8217,"EPHEMERIS_TYPE":0,"CLASSIFICATION_TYPE":"U","NORAD_CAT_ID":21574,"ELEMENT_SET_NO":999,"REV_AT_EPOCH":82301,"BSTAR":0.00012148472,"MEAN_MOTION_DOT":3.35e-6,"MEAN_MOTION_DDOT":0},{"OBJECT_NAME":"ARIANE 40 R/B","OBJECT_ID":"1991-050F","EPOCH":"2026-04-29T02:13:19.432128","MEAN_MOTION":14.42927152,"ECCENTRICITY":0.00017738,"INCLINATION":98.1916,"RA_OF_ASC_NODE":169.4122,"ARG_OF_PERICENTER":285.6727,"MEAN_ANOMALY":74.4268,"EPHEMERIS_TYPE":0,"CLASSIFICATION_TYPE":"U","NORAD_CAT_ID":21610,"ELEMENT_SET_NO":999,"REV_AT_EPOCH":82626,"BSTAR":9.7384759e-5,"MEAN_MOTION_DOT":2.84e-6,"MEAN_MOTION_DDOT":0},{"OBJECT_NAME":"INTERCOSMOS 25","OBJECT_ID":"1991-086A","EPOCH":"2026-04-29T04:06:38.198880","MEAN_MOTION":12.12134329,"ECCENTRICITY":0.1485663,"INCLINATION":82.5994,"RA_OF_ASC_NODE":279.4733,"ARG_OF_PERICENTER":8.1301,"MEAN_ANOMALY":354.1196,"EPHEMERIS_TYPE":0,"CLASSIFICATION_TYPE":"U","NORAD_CAT_ID":21819,"ELEMENT_SET_NO":999,"REV_AT_EPOCH":50280,"BSTAR":0.00016910578,"MEAN_MOTION_DOT":8.77e-6,"MEAN_MOTION_DDOT":0},{"OBJECT_NAME":"SL-8 R/B","OBJECT_ID":"1992-008B","EPOCH":"2026-04-29T06:14:16.718208","MEAN_MOTION":13.75970995,"ECCENTRICITY":0.00343542,"INCLINATION":82.9282,"RA_OF_ASC_NODE":230.1604,"ARG_OF_PERICENTER":355.7296,"MEAN_ANOMALY":64.338,"EPHEMERIS_TYPE":0,"CLASSIFICATION_TYPE":"U","NORAD_CAT_ID":21876,"ELEMENT_SET_NO":999,"REV_AT_EPOCH":71637,"BSTAR":3.4033242e-5,"MEAN_MOTION_DOT":4.8e-7,"MEAN_MOTION_DDOT":0},{"OBJECT_NAME":"SL-8 R/B","OBJECT_ID":"1992-020B","EPOCH":"2026-04-29T00:38:03.589152","MEAN_MOTION":13.75548197,"ECCENTRICITY":0.00295944,"INCLINATION":82.9269,"RA_OF_ASC_NODE":116.3747,"ARG_OF_PERICENTER":154.7115,"MEAN_ANOMALY":259.8648,"EPHEMERIS_TYPE":0,"CLASSIFICATION_TYPE":"U","NORAD_CAT_ID":21938,"ELEMENT_SET_NO":999,"REV_AT_EPOCH":70805,"BSTAR":-4.7859877e-5,"MEAN_MOTION_DOT":-3.1e-7,"MEAN_MOTION_DDOT":0},{"OBJECT_NAME":"USA 81","OBJECT_ID":"1992-023A","EPOCH":"2026-04-29T05:39:07.871328","MEAN_MOTION":14.32383692,"ECCENTRICITY":0.00014344,"INCLINATION":85.0039,"RA_OF_ASC_NODE":102.2609,"ARG_OF_PERICENTER":107.3356,"MEAN_ANOMALY":252.7993,"EPHEMERIS_TYPE":0,"CLASSIFICATION_TYPE":"U","NORAD_CAT_ID":21949,"ELEMENT_SET_NO":999,"REV_AT_EPOCH":10202,"BSTAR":6.6800276e-5,"MEAN_MOTION_DOT":2.0e-6,"MEAN_MOTION_DDOT":0},{"OBJECT_NAME":"COSMOS 2219","OBJECT_ID":"1992-076A","EPOCH":"2026-04-29T04:04:01.945344","MEAN_MOTION":14.14098621,"ECCENTRICITY":0.00166111,"INCLINATION":71.0601,"RA_OF_ASC_NODE":272.5401,"ARG_OF_PERICENTER":126.8453,"MEAN_ANOMALY":233.4196,"EPHEMERIS_TYPE":0,"CLASSIFICATION_TYPE":"U","NORAD_CAT_ID":22219,"ELEMENT_SET_NO":999,"REV_AT_EPOCH":72551,"BSTAR":0.00020037498,"MEAN_MOTION_DOT":3.35e-6,"MEAN_MOTION_DDOT":0},{"OBJECT_NAME":"SL-16 R/B","OBJECT_ID":"1992-076B","EPOCH":"2026-04-29T06:04:24.903264","MEAN_MOTION":14.16865125,"ECCENTRICITY":0.0012269,"INCLINATION":70.9989,"RA_OF_ASC_NODE":81.8614,"ARG_OF_PERICENTER":7.8304,"MEAN_ANOMALY":90.1547,"EPHEMERIS_TYPE":0,"CLASSIFICATION_TYPE":"U","NORAD_CAT_ID":22220,"ELEMENT_SET_NO":999,"REV_AT_EPOCH":72899,"BSTAR":1.7116714e-5,"MEAN_MOTION_DOT":-1.4e-7,"MEAN_MOTION_DDOT":0},{"OBJECT_NAME":"COSMOS 2221","OBJECT_ID":"1992-080A","EPOCH":"2026-04-29T07:50:57.628032","MEAN_MOTION":14.96402291,"ECCENTRICITY":0.00147184,"INCLINATION":82.5048,"RA_OF_ASC_NODE":230.5657,"ARG_OF_PERICENTER":28.2353,"MEAN_ANOMALY":331.9664,"EPHEMERIS_TYPE":0,"CLASSIFICATION_TYPE":"U","NORAD_CAT_ID":22236,"ELEMENT_SET_NO":999,"REV_AT_EPOCH":78836,"BSTAR":0.00016749312,"MEAN_MOTION_DOT":1.927e-5,"MEAN_MOTION_DDOT":0},{"OBJECT_NAME":"SL-16 R/B","OBJECT_ID":"1992-093B","EPOCH":"2026-04-29T03:03:04.949568","MEAN_MOTION":14.1545981,"ECCENTRICITY":0.00060984,"INCLINATION":71.0216,"RA_OF_ASC_NODE":258.3804,"ARG_OF_PERICENTER":243.106,"MEAN_ANOMALY":116.9441,"EPHEMERIS_TYPE":0,"CLASSIFICATION_TYPE":"U","NORAD_CAT_ID":22285,"ELEMENT_SET_NO":999,"REV_AT_EPOCH":72029,"BSTAR":0.0001498421,"MEAN_MOTION_DOT":2.45e-6,"MEAN_MOTION_DDOT":0},{"OBJECT_NAME":"COSMOS 2228","OBJECT_ID":"1992-094A","EPOCH":"2026-04-29T05:49:09.662016","MEAN_MOTION":14.97423343,"ECCENTRICITY":0.00192182,"INCLINATION":82.5199,"RA_OF_ASC_NODE":188.9149,"ARG_OF_PERICENTER":129.2651,"MEAN_ANOMALY":231.0281,"EPHEMERIS_TYPE":0,"CLASSIFICATION_TYPE":"U","NORAD_CAT_ID":22286,"ELEMENT_SET_NO":999,"REV_AT_EPOCH":78362,"BSTAR":0.00015509732,"MEAN_MOTION_DOT":1.837e-5,"MEAN_MOTION_DDOT":0},{"OBJECT_NAME":"SL-16 R/B","OBJECT_ID":"1993-016B","EPOCH":"2026-04-29T05:50:23.536608","MEAN_MOTION":14.15308125,"ECCENTRICITY":0.00124702,"INCLINATION":71.0037,"RA_OF_ASC_NODE":109.0053,"ARG_OF_PERICENTER":250.2547,"MEAN_ANOMALY":109.7231,"EPHEMERIS_TYPE":0,"CLASSIFICATION_TYPE":"U","NORAD_CAT_ID":22566,"ELEMENT_SET_NO":999,"REV_AT_EPOCH":70932,"BSTAR":-9.6099417e-5,"MEAN_MOTION_DOT":-2.35e-6,"MEAN_MOTION_DDOT":0},{"OBJECT_NAME":"COSMOS 2242","OBJECT_ID":"1993-024A","EPOCH":"2026-04-29T05:55:31.500768","MEAN_MOTION":14.9675776,"ECCENTRICITY":0.00174457,"INCLINATION":82.5208,"RA_OF_ASC_NODE":218.3533,"ARG_OF_PERICENTER":132.3857,"MEAN_ANOMALY":227.8846,"EPHEMERIS_TYPE":0,"CLASSIFICATION_TYPE":"U","NORAD_CAT_ID":22626,"ELEMENT_SET_NO":999,"REV_AT_EPOCH":78795,"BSTAR":0.00016887578,"MEAN_MOTION_DOT":1.962e-5,"MEAN_MOTION_DDOT":0}]
